OBJECT_NAME,OBJECT_ID,EPOCH,MEAN_MOTION,ECCENTRICITY,INCLINATION,RA_OF_ASC_NODE,ARG_OF_PERICENTER,MEAN_ANOMALY,EPHEMERIS_TYPE,CLASSIFICATION_TYPE,NORAD_CAT_ID,ELEMENT_SET_NO,REV_AT_EPOCH,BSTAR,MEAN_MOTION_DOT,MEAN_MOTION_DDOT
ELEKTRO-L 3,2019-095A,2026-06-25T12:57:41.181408,1.00272434,.00014742,0.2788,81.9476,1.4071,100.7106,0,U,44903,999,2379,0,-.86E-6,0
SHIJIAN-20 (SJ-20),2019-097A,2026-06-24T21:24:46.841184,1.00253185,.0014829,4.9384,74.9737,57.8622,146.1475,0,U,44910,999,2377,0,.142E-5,0
TJS-5,2020-002A,2026-06-21T13:17:41.293824,1.00270465,.0007602,0.0070,11.8722,36.2066,168.5853,0,U,44978,999,2375,0,-.343E-5,0
GSAT-30,2020-005A,2026-06-25T12:59:40.988832,1.00271032,.00037705,0.0179,9.0013,75.5412,107.0778,0,U,45026,999,2359,0,0,0
EUTELSAT KONNECT,2020-005B,2026-06-24T09:15:23.896800,1.00269250,.00016283,0.0721,95.0761,128.2930,195.2163,0,U,45027,999,2440,0,.57E-6,0
JCSAT-17,2020-013A,2026-06-24T08:09:30.168864,1.00271849,.00030268,5.3917,356.9482,93.8696,80.0656,0,U,45245,999,2330,0,-.312E-5,0
GEO-KOMPSAT-2B,2020-013B,2026-06-25T13:12:34.329312,1.00269980,.00001666,0.0410,230.0252,28.5796,341.4760,0,U,45246,999,2336,0,-.334E-5,0
BEIDOU-3 G2,2020-017A,2026-06-25T12:58:48.573408,1.00272015,.00024834,2.8815,47.4860,36.8784,104.1053,0,U,45344,999,2334,0,-.133E-5,0
AEHF-6 (USA 298),2020-022B,2026-06-25T14:05:38.664384,1.00269027,.00426462,2.5297,301.2703,17.2851,304.3107,0,U,45465,999,2309,0,-.286E-5,0
BEIDOU-3 G3,2020-040A,2026-06-25T14:09:13.707072,1.00275139,.00026525,2.4683,67.4734,326.9632,202.1169,0,U,45807,999,2215,0,-.346E-5,0
APSTAR-6D,2020-045A,2026-06-25T13:14:11.672736,1.00272143,.00022309,0.0478,95.8929,350.1461,160.2092,0,U,45863,999,2194,0,-.307E-5,0
KOREASAT 116,2020-048A,2026-06-25T14:13:38.608608,1.00272448,.00011577,0.0084,330.9896,133.8295,138.5402,0,U,45920,999,2172,0,-.352E-5,0
EXPRESS 103,2020-053A,2026-06-25T09:38:06.926784,1.00272030,.00002842,0.0160,321.3357,25.2800,167.9557,0,U,45985,999,2173,0,-.271E-5,0
EXPRESS 80,2020-053B,2026-06-25T00:27:25.640928,1.00268249,.00021373,0.0208,338.2553,219.5754,162.1618,0,U,45986,999,2171,0,0,0
BSAT-4B,2020-056A,2026-06-24T00:55:38.709408,1.00271625,.0004252,0.0287,148.8479,327.9577,279.1306,0,U,46112,999,2145,0,-.343E-5,0
MEV-2,2020-056B,2026-06-25T09:10:23.547072,1.00273298,.0000282,0.0268,285.1354,208.0196,276.9642,0,U,46113,999,8056,0,-.1E-7,0
GALAXY 30 (G-30),2020-056C,2026-06-24T17:11:02.937408,1.00270732,.00022205,0.0130,51.5985,38.3382,315.6757,0,U,46114,999,2136,0,.46E-6,0
GAOFEN-13 01,2020-071A,2026-06-25T08:01:32.317248,1.00267013,.00413645,0.5426,84.8237,123.2591,303.9070,0,U,46610,999,2100,0,-.353E-5,0
TIANTONG-1 2,2020-082A,2026-06-25T13:11:34.424736,1.00273186,.00017064,0.7795,328.7686,114.1923,153.5557,0,U,46916,999,2073,0,-.345E-5,0
LUCAS (JDRS-1),2020-089A,2026-06-25T11:18:38.943648,1.00272018,.00024311,0.0377,280.2460,158.3022,95.5191,0,U,47202,999,2050,0,-.226E-5,0
SXM-7,2020-096A,2026-06-25T12:11:39.293952,1.00272349,.00039868,0.0345,108.9298,10.6727,251.7988,0,U,47240,999,752,0,-.195E-5,0
CMS-01,2020-099A,2026-06-25T12:59:40.988832,1.00272656,.00030748,0.0326,96.7088,183.5292,271.3499,0,U,47256,999,2028,0,-.155E-5,0
TURKSAT 5A,2021-001A,2026-06-24T02:31:31.540224,1.00271998,.00002298,0.0229,69.2459,354.4836,277.3390,0,U,47306,999,2003,0,.161E-5,0
TIANTONG-1 3,2021-003A,2026-06-25T12:59:11.037408,1.00270208,.00035194,1.7490,339.8829,117.3553,92.7254,0,U,47321,999,2004,0,-.143E-5,0
TJS-6,2021-010A,2026-06-25T13:40:45.029568,1.00272598,.00033035,0.2279,263.5300,222.4137,171.4205,0,U,47613,999,1989,0,.53E-6,0
SBIRS GEO-5 (USA 315),2021-042A,2026-06-25T09:37:21.997920,1.00271968,.00017722,5.0927,329.1946,126.1727,56.3200,0,U,48618,999,1885,0,-.258E-5,0
FENGYUN 4B,2021-047A,2026-06-25T13:05:45.627072,1.00273499,.00058776,0.1740,78.5595,278.6353,217.6561,0,U,48808,999,1865,0,-.32E-5,0
SXM-8,2021-049A,2026-06-25T12:11:39.293952,1.00271562,.00054174,0.0170,13.9162,20.2624,337.2361,0,U,48838,999,1866,0,-.195E-5,0
TIANLIAN 1-05,2021-063A,2026-06-25T04:07:29.339040,1.00273055,.00007823,1.6146,80.6499,8.5464,262.8002,0,U,49011,999,1815,0,.116E-5,0
STAR ONE D2,2021-069A,2026-06-24T05:27:50.739840,1.00269113,.00020708,0.0158,349.5895,129.4688,165.1931,0,U,49055,999,1801,0,0,0
EUTELSAT QUANTUM,2021-069B,2026-06-25T12:49:34.459104,1.00269700,.0002644,0.0160,325.5316,127.9561,60.2825,0,U,49056,999,1801,0,.136E-5,0
ZHONGXING-2E,2021-071A,2026-06-25T02:47:55.389984,1.00271596,.00019941,0.0435,170.3097,320.5062,282.5011,0,U,49062,999,1811,0,-.282E-5,0
