ELEKTRO-L 3             
1 44903U 19095A   26176.54005997 -.00000086  00000+0  00000+0 0  9998
2 44903   0.2788  81.9476 0001474   1.4071 100.7106  1.00272434 23790
SHIJIAN-20 (SJ-20)      
1 44910U 19097A   26175.89220881  .00000142  00000+0  00000+0 0  9998
2 44910   4.9384  74.9737 0014829  57.8622 146.1475  1.00253185 23771
TJS-5                   
1 44978U 20002A   26172.55395016 -.00000343  00000+0  00000+0 0  9997
2 44978   0.0070  11.8722 0007602  36.2066 168.5853  1.00270465 23758
GSAT-30                 
1 45026U 20005A   26176.54144663  .00000000  00000+0  00000+0 0  9997
2 45026   0.0179   9.0013 0003770  75.5412 107.0778  1.00271032 23595
EUTELSAT KONNECT        
1 45027U 20005B   26175.38569325  .00000057  00000+0  00000+0 0  9997
2 45027   0.0721  95.0761 0001628 128.2930 195.2163  1.00269250 24402
JCSAT-17                
1 45245U 20013A   26175.33993251 -.00000312  00000+0  00000+0 0  9997
2 45245   5.3917 356.9482 0003026  93.8696  80.0656  1.00271849 23301
GEO-KOMPSAT-2B          
1 45246U 20013B   26176.55039733 -.00000334  00000+0  00000+0 0  9993
2 45246   0.0410 230.0252 0000166  28.5796 341.4760  1.00269980 23366
BEIDOU-3 G2             
1 45344U 20017A   26176.54083997 -.00000133  00000+0  00000+0 0  9993
2 45344   2.8815  47.4860 0002483  36.8784 104.1053  1.00272015 23342
AEHF-6 (USA 298)        
1 45465U 20022B   26176.58725306 -.00000286  00000+0  00000+0 0  9993
2 45465   2.5297 301.2703 0042646  17.2851 304.3107  1.00269027 23092
BEIDOU-3 G3             
1 45807U 20040A   26176.58974198 -.00000346  00000+0  00000+0 0  9995
2 45807   2.4683  67.4734 0002652 326.9632 202.1169  1.00275139 22155
APSTAR-6D               
1 45863U 20045A   26176.55152399 -.00000307  00000+0  00000+0 0  9997
2 45863   0.0478  95.8929 0002230 350.1461 160.2092  1.00272143 21942
KOREASAT 116            
1 45920U 20048A   26176.59280797 -.00000352  00000+0  00000+0 0  9992
2 45920   0.0084 330.9896 0001157 133.8295 138.5402  1.00272448 21720
EXPRESS 103             
1 45985U 20053A   26176.40146906 -.00000271  00000+0  00000+0 0  9992
2 45985   0.0160 321.3357 0000284  25.2800 167.9557  1.00272030 21733
EXPRESS 80              
1 45986U 20053B   26176.01904677  .00000000  00000+0  00000+0 0  9996
2 45986   0.0208 338.2553 0002137 219.5754 162.1618  1.00268249 21717
BSAT-4B                 
1 46112U 20056A   26175.03864247 -.00000343  00000+0  00000+0 0  9991
2 46112   0.0287 148.8479 0004252 327.9577 279.1306  1.00271625 21451
MEV-2                   
1 46113U 20056B   26176.38221698 -.00000001  00000+0  00000+0 0  9999
2 46113   0.0268 285.1354 0000282 208.0196 276.9642  1.00273298 80566
GALAXY 30 (G-30)        
1 46114U 20056C   26175.71600622  .00000046  00000+0  00000+0 0  9992
2 46114   0.0130  51.5985 0002220  38.3382 315.6757  1.00270732 21366
GAOFEN-13 01            
1 46610U 20071A   26176.33440182 -.00000353  00000+0  00000+0 0  9994
2 46610   0.5426  84.8237 0041364 123.2591 303.9070  1.00267013 21004
TIANTONG-1 2            
1 46916U 20082A   26176.54970399 -.00000345  00000+0  00000+0 0  9997
2 46916   0.7795 328.7686 0001706 114.1923 153.5557  1.00273186 20732
LUCAS (JDRS-1)          
1 47202U 20089A   26176.47128407 -.00000226  00000+0  00000+0 0  9998
2 47202   0.0377 280.2460 0002431 158.3022  95.5191  1.00272018 20505
SXM-7                   
1 47240U 20096A   26176.50809368 -.00000195  00000+0  00000+0 0  9999
2 47240   0.0345 108.9298 0003986  10.6727 251.7988  1.00272349  7529
CMS-01                  
1 47256U 20099A   26176.54144663 -.00000155  00000+0  00000+0 0  9999
2 47256   0.0326  96.7088 0003074 183.5292 271.3499  1.00272656 20285
TURKSAT 5A              
1 47306U 21001A   26175.10522616  .00000161  00000+0  00000+0 0  9994
2 47306   0.0229  69.2459 0000229 354.4836 277.3390  1.00271998 20039
TIANTONG-1 3            
1 47321U 21003A   26176.54109997 -.00000143  00000+0  00000+0 0  9996
2 47321   1.7490 339.8829 0003519 117.3553  92.7254  1.00270208 20040
TJS-6                   
1 47613U 21010A   26176.56996562  .00000053  00000+0  00000+0 0  9991
2 47613   0.2279 263.5300 0003303 222.4137 171.4205  1.00272598 19893
SBIRS GEO-5 (USA 315)   
1 48618U 21042A   26176.40094905 -.00000258  00000+0  00000+0 0  9993
2 48618   5.0927 329.1946 0001772 126.1727  56.3200  1.00271968 18851
FENGYUN 4B              
1 48808U 21047A   26176.54566698 -.00000320  00000+0  00000+0 0  9997
2 48808   0.1740  78.5595 0005877 278.6353 217.6561  1.00273499 18655
SXM-8                   
1 48838U 21049A   26176.50809368 -.00000195  00000+0  00000+0 0  9992
2 48838   0.0170  13.9162 0005417  20.2624 337.2361  1.00271562 18666
TIANLIAN 1-05           
1 49011U 21063A   26176.17186735  .00000116  00000+0  00000+0 0  9993
2 49011   1.6146  80.6499 0000782   8.5464 262.8002  1.00273055 18153
STAR ONE D2             
1 49055U 21069A   26175.22767060  .00000000  00000+0  00000+0 0  9990
2 49055   0.0158 349.5895 0002070 129.4688 165.1931  1.00269113 18018
EUTELSAT QUANTUM        
1 49056U 21069B   26176.53442661  .00000136  00000+0  00000+0 0  9993
2 49056   0.0160 325.5316 0002644 127.9561  60.2825  1.00269700 18013
ZHONGXING-2E            
1 49062U 21071A   26176.11661331 -.00000282  00000+0  00000+0 0  9997
2 49062   0.0435 170.3097 0001994 320.5062 282.5011  1.00271596 18114
